{"type": "FeatureCollection", "features": [ {"type": "Feature", "properties": {"norad_id": 66465, "name": "STARLINK-35448", "group": "last-30-days", "lat": 33.03627285497952, "lon": 124.38186053623274, "alt_km": 438.748659503206, "timestamp": "2025-12-11T05:00:25.074271+00:00", "meta": {"OBJECT_NAME": "STARLINK-35448", "OBJECT_ID": "2025-262K", "EPOCH": "2025-12-10T22:00:03.000096", "MEAN_MOTION": 15.42081823, "ECCENTRICITY": 0.00014454, "INCLINATION": 43.001, "RA_OF_ASC_NODE": 81.8125, "ARG_OF_PERICENTER": 281.2189, "MEAN_ANOMALY": 309.9809, "EPHEMERIS_TYPE": 0, "CLASSIFICATION_TYPE": "U", "NORAD_CAT_ID": 66465, "ELEMENT_SET_NO": 999, "REV_AT_EPOCH": 534, "BSTAR": -0.045545562, "MEAN_MOTION_DOT": -0.01796871, "MEAN_MOTION_DDOT": 0}, "tle": {"line1": "1 66465U 25262K   25344.91670139 -.01796871  00000+0 -45546-1 0  9993", "line2": "2 66465  43.0010  81.8125 0001445 281.2189 309.9809 15.42081823  5341"}}, "geometry": {"type": "Point", "coordinates": [124.38186053623274, 33.03627285497952]}}, {"type": "Feature", "properties": {"norad_id": 66466, "name": "STARLINK-35388", "group": "last-30-days", "lat": 38.044815367856565, "lon": 137.21402630104123, "alt_km": 434.1215841849553, "timestamp": "2025-12-11T05:00:25.074282+00:00", "meta": {"OBJECT_NAME": "STARLINK-35388", "OBJECT_ID": "2025-262L", "EPOCH": "2025-12-10T22:00:03.000096", "MEAN_MOTION": 15.43423956, "ECCENTRICITY": 0.00013117, "INCLINATION": 43.0007, "RA_OF_ASC_NODE": 81.788, "ARG_OF_PERICENTER": 277.8069, "MEAN_ANOMALY": 323.5552, "EPHEMERIS_TYPE": 0, "CLASSIFICATION_TYPE": "U", "NORAD_CAT_ID": 66466, "ELEMENT_SET_NO": 999, "REV_AT_EPOCH": 534, "BSTAR": -0.043521027, "MEAN_MOTION_DOT": -0.01796964, "MEAN_MOTION_DDOT": 0}, "tle": {"line1": "1 66466U 25262L   25344.91670139 -.01796964  00000+0 -43521-1 0  9998", "line2": "2 66466  43.0007  81.7880 0001311 277.8069 323.5552 15.43423956  5340"}}, "geometry": {"type": "Point", "coordinates": [137.21402630104123, 38.044815367856565]}}, {"type": "Feature", "properties": {"norad_id": 66467, "name": "STARLINK-35682", "group": "last-30-days", "lat": 26.353681617568004, "lon": 112.27312184180099, "alt_km": 440.422039134457, "timestamp": "2025-12-11T05:00:25.074295+00:00", "meta": {"OBJECT_NAME": "STARLINK-35682", "OBJECT_ID": "2025-262M", "EPOCH": "2025-12-10T22:00:03.000096", "MEAN_MOTION": 15.40641105, "ECCENTRICITY": 0.00015098, "INCLINATION": 43.0009, "RA_OF_ASC_NODE": 81.8414, "ARG_OF_PERICENTER": 282.554, "MEAN_ANOMALY": 297.0935, "EPHEMERIS_TYPE": 0, "CLASSIFICATION_TYPE": "U", "NORAD_CAT_ID": 66467, "ELEMENT_SET_NO": 999, "REV_AT_EPOCH": 534, "BSTAR": 0.00093917141, "MEAN_MOTION_DOT": 0.00039052, "MEAN_MOTION_DDOT": 0}, "tle": {"line1": "1 66467U 25262M   25344.91670139  .00039052  00000+0  93917-3 0  9990", "line2": "2 66467  43.0009  81.8414 0001509 282.5540 297.0935 15.40641105  5348"}}, "geometry": {"type": "Point", "coordinates": [112.27312184180099, 26.353681617568004]}}, {"type": "Feature", "properties": {"norad_id": 66468, "name": "STARLINK-35331", "group": "last-30-days", "lat": 41.14751016225395, "lon": 149.7425633210879, "alt_km": 429.98587377064814, "timestamp": "2025-12-11T05:00:25.074305+00:00", "meta": {"OBJECT_NAME": "STARLINK-35331", "OBJECT_ID": "2025-262N", "EPOCH": "2025-12-10T22:00:03.000096", "MEAN_MOTION": 15.44849823, "ECCENTRICITY": 0.00010092, "INCLINATION": 43.0009, "RA_OF_ASC_NODE": 81.7667, "ARG_OF_PERICENTER": 270.2542, "MEAN_ANOMALY": 339.8495, "EPHEMERIS_TYPE": 0, "CLASSIFICATION_TYPE": "U", "NORAD_CAT_ID": 66468, "ELEMENT_SET_NO": 999, "REV_AT_EPOCH": 534, "BSTAR": -0.048817345, "MEAN_MOTION_DOT": -0.02080642, "MEAN_MOTION_DDOT": 0}, "tle": {"line1": "1 66468U 25262N   25344.91670139 -.02080642  00000+0 -48817-1 0  9993", "line2": "2 66468  43.0009  81.7667 0001009 270.2542 339.8495 15.44849823  5346"}}, "geometry": {"type": "Point", "coordinates": [149.7425633210879, 41.14751016225395]}}, {"type": "Feature", "properties": {"norad_id": 66469, "name": "STARLINK-35451", "group": "last-30-days", "lat": 42.26223364056363, "lon": -177.19260394967412, "alt_km": 410.0759989175185, "timestamp": "2025-12-11T05:00:25.074315+00:00", "meta": {"OBJECT_NAME": "STARLINK-35451", "OBJECT_ID": "2025-262P", "EPOCH": "2025-12-10T16:12:32.558112", "MEAN_MOTION": 15.50219904, "ECCENTRICITY": 4.921e-05, "INCLINATION": 43.0005, "RA_OF_ASC_NODE": 83.1302, "ARG_OF_PERICENTER": 334.6757, "MEAN_ANOMALY": 25.4079, "EPHEMERIS_TYPE": 0, "CLASSIFICATION_TYPE": "U", "NORAD_CAT_ID": 66469, "ELEMENT_SET_NO": 999, "REV_AT_EPOCH": 524, "BSTAR": -0.0029160526, "MEAN_MOTION_DOT": -0.00165698, "MEAN_MOTION_DDOT": 0}, "tle": {"line1": "1 66469U 25262P   25344.67537683 -.00165698  00000+0 -29161-2 0  9998", "line2": "2 66469  43.0005  83.1302 0000492 334.6757  25.4079 15.50219904  5246"}}, "geometry": {"type": "Point", "coordinates": [-177.19260394967412, 42.26223364056363]}}, {"type": "Feature", "properties": {"norad_id": 66470, "name": "STARLINK-35655", "group": "last-30-days", "lat": 42.64646401031356, "lon": 161.31608988502492, "alt_km": 425.9994769314344, "timestamp": "2025-12-11T05:00:25.074326+00:00", "meta": {"OBJECT_NAME": "STARLINK-35655", "OBJECT_ID": "2025-262Q", "EPOCH": "2025-12-10T22:00:03.000096", "MEAN_MOTION": 15.46177892, "ECCENTRICITY": 0.0001205, "INCLINATION": 43.0003, "RA_OF_ASC_NODE": 81.7492, "ARG_OF_PERICENTER": 275.0139, "MEAN_ANOMALY": 342.4287, "EPHEMERIS_TYPE": 0, "CLASSIFICATION_TYPE": "U", "NORAD_CAT_ID": 66470, "ELEMENT_SET_NO": 999, "REV_AT_EPOCH": 534, "BSTAR": -0.046503471, "MEAN_MOTION_DOT": -0.02076096, "MEAN_MOTION_DDOT": 0}, "tle": {"line1": "1 66470U 25262Q   25344.91670139 -.02076096  00000+0 -46503-1 0  9994", "line2": "2 66470  43.0003  81.7492 0001205 275.0139 342.4287 15.46177892  5343"}}, "geometry": {"type": "Point", "coordinates": [161.31608988502492, 42.64646401031356]}}, {"type": "Feature", "properties": {"norad_id": 66471, "name": "STARLINK-35569", "group": "last-30-days", "lat": 42.89412766636359, "lon": 174.4679284683547, "alt_km": 414.41730235824434, "timestamp": "2025-12-11T05:00:25.074336+00:00", "meta": {"OBJECT_NAME": "STARLINK-35569", "OBJECT_ID": "2025-262R", "EPOCH": "2025-12-10T17:46:17.575680", "MEAN_MOTION": 15.48832505, "ECCENTRICITY": 0.00028004, "INCLINATION": 43.0004, "RA_OF_ASC_NODE": 82.7594, "ARG_OF_PERICENTER": 353.1343, "MEAN_ANOMALY": 6.9478, "EPHEMERIS_TYPE": 0, "CLASSIFICATION_TYPE": "U", "NORAD_CAT_ID": 66471, "ELEMENT_SET_NO": 999, "REV_AT_EPOCH": 525, "BSTAR": -0.0059561847, "MEAN_MOTION_DOT": -0.00315928, "MEAN_MOTION_DDOT": 0}, "tle": {"line1": "1 66471U 25262R   25344.74048120 -.00315928  00000+0 -59562-2 0  9993", "line2": "2 66471  43.0004  82.7594 0002800 353.1343   6.9478 15.48832505  5251"}}, "geometry": {"type": "Point", "coordinates": [174.4679284683547, 42.89412766636359]}}, {"type": "Feature", "properties": {"norad_id": 66472, "name": "STARLINK-35567", "group": "last-30-days", "lat": 41.70388857314916, "lon": -172.98392675638283, "alt_km": 409.3183087571024, "timestamp": "2025-12-11T05:00:25.074347+00:00", "meta": {"OBJECT_NAME": "STARLINK-35567", "OBJECT_ID": "2025-262S", "EPOCH": "2025-12-10T17:44:43.245024", "MEAN_MOTION": 15.50602212, "ECCENTRICITY": 0.00018545, "INCLINATION": 43.0003, "RA_OF_ASC_NODE": 82.7509, "ARG_OF_PERICENTER": 260.0328, "MEAN_ANOMALY": 100.0323, "EPHEMERIS_TYPE": 0, "CLASSIFICATION_TYPE": "U", "NORAD_CAT_ID": 66472, "ELEMENT_SET_NO": 999, "REV_AT_EPOCH": 525, "BSTAR": 0.0012310005, "MEAN_MOTION_DOT": 0.00072609, "MEAN_MOTION_DDOT": 0}, "tle": {"line1": "1 66472U 25262S   25344.73938941  .00072609  00000+0  12310-2 0  9996", "line2": "2 66472  43.0003  82.7509 0001854 260.0328 100.0323 15.50602212  5252"}}, "geometry": {"type": "Point", "coordinates": [-172.98392675638283, 41.70388857314916]}}, {"type": "Feature", "properties": {"norad_id": 66473, "name": "STARLINK-35568", "group": "last-30-days", "lat": 41.28476325377717, "lon": -170.43324317780628, "alt_km": 408.9640217836168, "timestamp": "2025-12-11T05:00:25.074357+00:00", "meta": {"OBJECT_NAME": "STARLINK-35568", "OBJECT_ID": "2025-262T", "EPOCH": "2025-12-10T17:44:14.020224", "MEAN_MOTION": 15.50606476, "ECCENTRICITY": 0.00014813, "INCLINATION": 43.0004, "RA_OF_ASC_NODE": 82.7481, "ARG_OF_PERICENTER": 265.4377, "MEAN_ANOMALY": 94.6314, "EPHEMERIS_TYPE": 0, "CLASSIFICATION_TYPE": "U", "NORAD_CAT_ID": 66473, "ELEMENT_SET_NO": 999, "REV_AT_EPOCH": 525, "BSTAR": 0.0023568265, "MEAN_MOTION_DOT": 0.0014057, "MEAN_MOTION_DDOT": 0}, "tle": {"line1": "1 66473U 25262T   25344.73905116  .00140570  00000+0  23568-2 0  9995", "line2": "2 66473  43.0004  82.7481 0001481 265.4377  94.6314 15.50606476  5256"}}, "geometry": {"type": "Point", "coordinates": [-170.43324317780628, 41.28476325377717]}}, {"type": "Feature", "properties": {"norad_id": 66474, "name": "STARLINK-35620", "group": "last-30-days", "lat": 40.853827344905405, "lon": -168.1379838895992, "alt_km": 409.02764162941367, "timestamp": "2025-12-11T05:00:25.074369+00:00", "meta": {"OBJECT_NAME": "STARLINK-35620", "OBJECT_ID": "2025-262U", "EPOCH": "2025-12-10T17:43:46.078464", "MEAN_MOTION": 15.50582881, "ECCENTRICITY": 0.00014562, "INCLINATION": 43.0004, "RA_OF_ASC_NODE": 82.745, "ARG_OF_PERICENTER": 267.7491, "MEAN_ANOMALY": 92.3203, "EPHEMERIS_TYPE": 0, "CLASSIFICATION_TYPE": "U", "NORAD_CAT_ID": 66474, "ELEMENT_SET_NO": 999, "REV_AT_EPOCH": 525, "BSTAR": 0.0027072796, "MEAN_MOTION_DOT": 0.0016183, "MEAN_MOTION_DDOT": 0}, "tle": {"line1": "1 66474U 25262U   25344.73872776  .00161830  00000+0  27073-2 0  9998", "line2": "2 66474  43.0004  82.7450 0001456 267.7491  92.3203 15.50582881  5252"}}, "geometry": {"type": "Point", "coordinates": [-168.1379838895992, 40.853827344905405]}}]}